{"fetched_at":"2026-07-16T06:43:14.258Z","source":"https://celestrak.org/NORAD/elements/gp.php?NAME=RADARSAT&FORMAT=JSON","constellation":"radarsat-2","records":[{"OBJECT_NAME":"RADARSAT-2","OBJECT_ID":"2007-061A","EPOCH":"2026-07-16T00:08:16.963296","CLASSIFICATION_TYPE":"U","MEAN_MOTION":14.29982892,"ECCENTRICITY":0.00012965,"INCLINATION":98.5777,"RA_OF_ASC_NODE":203.5266,"ARG_OF_PERICENTER":84.2105,"MEAN_ANOMALY":275.9225,"EPHEMERIS_TYPE":0,"NORAD_CAT_ID":32382,"ELEMENT_SET_NO":999,"REV_AT_EPOCH":97007,"BSTAR":-0.000036693826,"MEAN_MOTION_DOT":-0.00000138,"MEAN_MOTION_DDOT":0}]}
