RADARSAT-2              
1 32382U 07061A   26197.00575189 -.00000138  00000+0 -36694-4 0  9997
2 32382  98.5777 203.5266 0001296  84.2105 275.9225 14.29982892970074
